[{"OBJECT_NAME":"ONEWEB-0206","OBJECT_ID":"2021-031T","EPOCH":"2026-04-02T07:08:23.203392","MEAN_MOTION":13.14490803,"ECCENTRICITY":0.0001896,"INCLINATION":87.8954,"RA_OF_ASC_NODE":304.8441,"ARG_OF_PERICENTER":92.576,"MEAN_ANOMALY":267.5587,"EPHEMERIS_TYPE":0,"CLASSIFICATION_TYPE":"U","NORAD_CAT_ID":48227,"ELEMENT_SET_NO":999,"REV_AT_EPOCH":23825,"BSTAR":-0.0029031,"MEAN_MOTION_DOT":-1.063e-05,"MEAN_MOTION_DDOT":0.0},{"OBJECT_NAME":"ONEWEB-0182","OBJECT_ID":"2021-031U","EPOCH":"2026-04-02T03:22:18.002496","MEAN_MOTION":13.14504041,"ECCENTRICITY":0.0001412,"INCLINATION":87.8946,"RA_OF_ASC_NODE":304.8855,"ARG_OF_PERICENTER":87.8444,"MEAN_ANOMALY":272.2848,"EPHEMERIS_TYPE":0,"CLASSIFICATION_TYPE":"U","NORAD_CAT_ID":48228,"ELEMENT_SET_NO":999,"REV_AT_EPOCH":23844,"BSTAR":-9.817900000000001e-05,"MEAN_MOTION_DOT":-2.4e-07,"MEAN_MOTION_DDOT":0.0},{"OBJECT_NAME":"ONEWEB-0186","OBJECT_ID":"2021-031V","EPOCH":"2026-04-02T07:17:29.634144","MEAN_MOTION":13.14502935,"ECCENTRICITY":0.0001643,"INCLINATION":87.8946,"RA_OF_ASC_NODE":304.8407,"ARG_OF_PERICENTER":82.3416,"MEAN_ANOMALY":277.79,"EPHEMERIS_TYPE":0,"CLASSIFICATION_TYPE":"U","NORAD_CAT_ID":48229,"ELEMENT_SET_NO":999,"REV_AT_EPOCH":23841,"BSTAR":-0.0008266500000000001,"MEAN_MOTION_DOT":-2.94e-06,"MEAN_MOTION_DDOT":0.0},{"OBJECT_NAME":"ONEWEB-0181","OBJECT_ID":"2021-031W","EPOCH":"2026-04-02T03:06:18.983232","MEAN_MOTION":13.14504655,"ECCENTRICITY":0.0001695,"INCLINATION":87.8937,"RA_OF_ASC_NODE":304.9145,"ARG_OF_PERICENTER":79.8375,"MEAN_ANOMALY":280.2946,"EPHEMERIS_TYPE":0,"CLASSIFICATION_TYPE":"U","NORAD_CAT_ID":48230,"ELEMENT_SET_NO":999,"REV_AT_EPOCH":23824,"BSTAR":0.0003116,"MEAN_MOTION_DOT":1.28e-06,"MEAN_MOTION_DDOT":0.0},{"OBJECT_NAME":"ONEWEB-0188","OBJECT_ID":"2021-031X","EPOCH":"2026-04-02T02:11:30.334848","MEAN_MOTION":13.14504609,"ECCENTRICITY":0.0001631,"INCLINATION":87.8936,"RA_OF_ASC_NODE":304.92,"ARG_OF_PERICENTER":85.0689,"MEAN_ANOMALY":275.0627,"EPHEMERIS_TYPE":0,"CLASSIFICATION_TYPE":"U","NORAD_CAT_ID":48231,"ELEMENT_SET_NO":999,"REV_AT_EPOCH":23814,"BSTAR":-6.6871e-05,"MEAN_MOTION_DOT":-1.2e-07,"MEAN_MOTION_DDOT":0.0},{"OBJECT_NAME":"ONEWEB-0220","OBJECT_ID":"2021-031Y","EPOCH":"2026-04-02T06:47:49.261056","MEAN_MOTION":13.14503882,"ECCENTRICITY":0.0001516,"INCLINATION":87.8947,"RA_OF_ASC_NODE":304.8441,"ARG_OF_PERICENTER":77.7426,"MEAN_ANOMALY":282.3874,"EPHEMERIS_TYPE":0,"CLASSIFICATION_TYPE":"U","NORAD_CAT_ID":48232,"ELEMENT_SET_NO":999,"REV_AT_EPOCH":23843,"BSTAR":0.00042574,"MEAN_MOTION_DOT":1.71e-06,"MEAN_MOTION_DDOT":0.0},{"OBJECT_NAME":"ONEWEB-0165","OBJECT_ID":"2021-031Z","EPOCH":"2026-04-02T07:28:56.257536","MEAN_MOTION":13.1450412,"ECCENTRICITY":0.000192,"INCLINATION":87.895,"RA_OF_ASC_NODE":304.8549,"ARG_OF_PERICENTER":77.3127,"MEAN_ANOMALY":282.8217,"EPHEMERIS_TYPE":0,"CLASSIFICATION_TYPE":"U","NORAD_CAT_ID":48233,"ELEMENT_SET_NO":999,"REV_AT_EPOCH":23839,"BSTAR":-0.00062705,"MEAN_MOTION_DOT":-2.2e-06,"MEAN_MOTION_DDOT":0.0},{"OBJECT_NAME":"ONEWEB-0199","OBJECT_ID":"2021-031AA","EPOCH":"2026-04-02T07:06:05.893056","MEAN_MOTION":13.14502478,"ECCENTRICITY":0.0001667,"INCLINATION":87.8952,"RA_OF_ASC_NODE":304.8403,"ARG_OF_PERICENTER":92.3371,"MEAN_ANOMALY":267.7949,"EPHEMERIS_TYPE":0,"CLASSIFICATION_TYPE":"U","NORAD_CAT_ID":48234,"ELEMENT_SET_NO":999,"REV_AT_EPOCH":23829,"BSTAR":-0.00030715,"MEAN_MOTION_DOT":-1.01e-06,"MEAN_MOTION_DDOT":0.0},{"OBJECT_NAME":"ONEWEB-0203","OBJECT_ID":"2021-031AB","EPOCH":"2026-04-02T01:23:33.129312","MEAN_MOTION":13.1450144,"ECCENTRICITY":0.0001805,"INCLINATION":87.8955,"RA_OF_ASC_NODE":304.8892,"ARG_OF_PERICENTER":86.8782,"MEAN_ANOMALY":273.2554,"EPHEMERIS_TYPE":0,"CLASSIFICATION_TYPE":"U","NORAD_CAT_ID":48235,"ELEMENT_SET_NO":999,"REV_AT_EPOCH":23827,"BSTAR":0.0001179,"MEAN_MOTION_DOT":5.6e-07,"MEAN_MOTION_DDOT":0.0},{"OBJECT_NAME":"ONEWEB-0197","OBJECT_ID":"2021-031AC","EPOCH":"2026-04-02T02:36:25.234560","MEAN_MOTION":13.14504727,"ECCENTRICITY":0.0001325,"INCLINATION":87.8944,"RA_OF_ASC_NODE":304.8753,"ARG_OF_PERICENTER":89.103,"MEAN_ANOMALY":271.0252,"EPHEMERIS_TYPE":0,"CLASSIFICATION_TYPE":"U","NORAD_CAT_ID":48236,"ELEMENT_SET_NO":999,"REV_AT_EPOCH":23819,"BSTAR":0.00060364,"MEAN_MOTION_DOT":2.37e-06,"MEAN_MOTION_DDOT":0.0},{"OBJECT_NAME":"ONEWEB-0194","OBJECT_ID":"2021-031AD","EPOCH":"2026-04-02T07:35:46.135680","MEAN_MOTION":13.14504894,"ECCENTRICITY":0.0001803,"INCLINATION":87.8946,"RA_OF_ASC_NODE":304.8517,"ARG_OF_PERICENTER":92.1628,"MEAN_ANOMALY":267.9708,"EPHEMERIS_TYPE":0,"CLASSIFICATION_TYPE":"U","NORAD_CAT_ID":48237,"ELEMENT_SET_NO":999,"REV_AT_EPOCH":23839,"BSTAR":-0.00028406,"MEAN_MOTION_DOT":-9.3e-07,"MEAN_MOTION_DDOT":0.0},{"OBJECT_NAME":"ONEWEB-0193","OBJECT_ID":"2021-031AE","EPOCH":"2026-04-02T02:29:45.805632","MEAN_MOTION":13.14504322,"ECCENTRICITY":0.0001888,"INCLINATION":87.8943,"RA_OF_ASC_NODE":304.886,"ARG_OF_PERICENTER":98.2478,"MEAN_ANOMALY":261.8866,"EPHEMERIS_TYPE":0,"CLASSIFICATION_TYPE":"U","NORAD_CAT_ID":48238,"ELEMENT_SET_NO":999,"REV_AT_EPOCH":23831,"BSTAR":0.00013333,"MEAN_MOTION_DOT":6.2e-07,"MEAN_MOTION_DDOT":0.0},{"OBJECT_NAME":"ONEWEB-0191","OBJECT_ID":"2021-031AF","EPOCH":"2026-04-02T02:45:47.138688","MEAN_MOTION":13.14496628,"ECCENTRICITY":0.0001523,"INCLINATION":87.8946,"RA_OF_ASC_NODE":304.8796,"ARG_OF_PERICENTER":87.5293,"MEAN_ANOMALY":272.6011,"EPHEMERIS_TYPE":0,"CLASSIFICATION_TYPE":"U","NORAD_CAT_ID":48239,"ELEMENT_SET_NO":999,"REV_AT_EPOCH":23817,"BSTAR":0.003158,"MEAN_MOTION_DOT":1.184e-05,"MEAN_MOTION_DDOT":0.0},{"OBJECT_NAME":"ONEWEB-0195","OBJECT_ID":"2021-031AG","EPOCH":"2026-04-02T00:23:01.905792","MEAN_MOTION":13.14504741,"ECCENTRICITY":0.0001877,"INCLINATION":87.8943,"RA_OF_ASC_NODE":304.8954,"ARG_OF_PERICENTER":75.0639,"MEAN_ANOMALY":285.0698,"EPHEMERIS_TYPE":0,"CLASSIFICATION_TYPE":"U","NORAD_CAT_ID":48240,"ELEMENT_SET_NO":999,"REV_AT_EPOCH":23814,"BSTAR":-0.00016636,"MEAN_MOTION_DOT":-4.9e-07,"MEAN_MOTION_DDOT":0.0},{"OBJECT_NAME":"ONEWEB-0201","OBJECT_ID":"2021-031AH","EPOCH":"2026-04-02T03:45:19.893600","MEAN_MOTION":13.14502685,"ECCENTRICITY":0.000135,"INCLINATION":87.8938,"RA_OF_ASC_NODE":304.8945,"ARG_OF_PERICENTER":77.5135,"MEAN_ANOMALY":282.6146,"EPHEMERIS_TYPE":0,"CLASSIFICATION_TYPE":"U","NORAD_CAT_ID":48241,"ELEMENT_SET_NO":999,"REV_AT_EPOCH":23839,"BSTAR":-0.00040448000000000003,"MEAN_MOTION_DOT":-1.37e-06,"MEAN_MOTION_DDOT":0.0},{"OBJECT_NAME":"ONEWEB-0207","OBJECT_ID":"2021-031AJ","EPOCH":"2026-04-02T06:55:48.108000","MEAN_MOTION":13.14502074,"ECCENTRICITY":0.0001391,"INCLINATION":87.8957,"RA_OF_ASC_NODE":304.8428,"ARG_OF_PERICENTER":81.2102,"MEAN_ANOMALY":278.9186,"EPHEMERIS_TYPE":0,"CLASSIFICATION_TYPE":"U","NORAD_CAT_ID":48242,"ELEMENT_SET_NO":999,"REV_AT_EPOCH":23832,"BSTAR":0.00012848000000000002,"MEAN_MOTION_DOT":6e-07,"MEAN_MOTION_DDOT":0.0},{"OBJECT_NAME":"ONEWEB-0208","OBJECT_ID":"2021-031AK","EPOCH":"2026-04-02T02:50:20.014944","MEAN_MOTION":13.14501627,"ECCENTRICITY":0.0001863,"INCLINATION":87.8947,"RA_OF_ASC_NODE":304.8886,"ARG_OF_PERICENTER":78.5617,"MEAN_ANOMALY":281.5722,"EPHEMERIS_TYPE":0,"CLASSIFICATION_TYPE":"U","NORAD_CAT_ID":48243,"ELEMENT_SET_NO":999,"REV_AT_EPOCH":23831,"BSTAR":0.00059751,"MEAN_MOTION_DOT":2.34e-06,"MEAN_MOTION_DDOT":0.0},{"OBJECT_NAME":"ONEWEB-0200","OBJECT_ID":"2021-031AL","EPOCH":"2026-04-02T01:57:48.492864","MEAN_MOTION":13.14503918,"ECCENTRICITY":0.0001681,"INCLINATION":87.8939,"RA_OF_ASC_NODE":304.8838,"ARG_OF_PERICENTER":82.0396,"MEAN_ANOMALY":278.0924,"EPHEMERIS_TYPE":0,"CLASSIFICATION_TYPE":"U","NORAD_CAT_ID":48244,"ELEMENT_SET_NO":999,"REV_AT_EPOCH":23823,"BSTAR":-0.00053737,"MEAN_MOTION_DOT":-1.86e-06,"MEAN_MOTION_DDOT":0.0},{"OBJECT_NAME":"ONEWEB-0217","OBJECT_ID":"2021-031AM","EPOCH":"2026-04-02T02:20:38.143680","MEAN_MOTION":13.14505009,"ECCENTRICITY":0.0001878,"INCLINATION":87.8948,"RA_OF_ASC_NODE":304.8812,"ARG_OF_PERICENTER":75.5462,"MEAN_ANOMALY":284.5876,"EPHEMERIS_TYPE":0,"CLASSIFICATION_TYPE":"U","NORAD_CAT_ID":48245,"ELEMENT_SET_NO":999,"REV_AT_EPOCH":23818,"BSTAR":0.00014042,"MEAN_MOTION_DOT":6.5e-07,"MEAN_MOTION_DDOT":0.0},{"OBJECT_NAME":"ONEWEB-0211","OBJECT_ID":"2021-045A","EPOCH":"2026-04-02T07:45:03.538368","MEAN_MOTION":13.16192594,"ECCENTRICITY":0.0002302,"INCLINATION":87.8929,"RA_OF_ASC_NODE":274.2386,"ARG_OF_PERICENTER":82.063,"MEAN_ANOMALY":278.0762,"EPHEMERIS_TYPE":0,"CLASSIFICATION_TYPE":"U","NORAD_CAT_ID":48767,"ELEMENT_SET_NO":999,"REV_AT_EPOCH":23446,"BSTAR":0.00016930000000000002,"MEAN_MOTION_DOT":7.7e-07,"MEAN_MOTION_DDOT":0.0},{"OBJECT_NAME":"ONEWEB-0223","OBJECT_ID":"2021-045B","EPOCH":"2026-04-02T05:05:16.171872","MEAN_MOTION":13.15550343,"ECCENTRICITY":0.0002165,"INCLINATION":87.8935,"RA_OF_ASC_NODE":274.3489,"ARG_OF_PERICENTER":90.9457,"MEAN_ANOMALY":269.1921,"EPHEMERIS_TYPE":0,"CLASSIFICATION_TYPE":"U","NORAD_CAT_ID":48768,"ELEMENT_SET_NO":999,"REV_AT_EPOCH":23441,"BSTAR":-0.00012743,"MEAN_MOTION_DOT":-3.5e-07,"MEAN_MOTION_DDOT":0.0},{"OBJECT_NAME":"ONEWEB-0230","OBJECT_ID":"2021-045C","EPOCH":"2026-04-02T06:13:43.575168","MEAN_MOTION":13.15549644,"ECCENTRICITY":0.0001614,"INCLINATION":87.8922,"RA_OF_ASC_NODE":274.3601,"ARG_OF_PERICENTER":97.3416,"MEAN_ANOMALY":262.7898,"EPHEMERIS_TYPE":0,"CLASSIFICATION_TYPE":"U","NORAD_CAT_ID":48769,"ELEMENT_SET_NO":999,"REV_AT_EPOCH":23468,"BSTAR":0.00042398,"MEAN_MOTION_DOT":1.72e-06,"MEAN_MOTION_DDOT":0.0},{"OBJECT_NAME":"ONEWEB-0237","OBJECT_ID":"2021-045D","EPOCH":"2026-04-02T00:29:11.084352","MEAN_MOTION":13.15549624,"ECCENTRICITY":0.0001977,"INCLINATION":87.8925,"RA_OF_ASC_NODE":274.4096,"ARG_OF_PERICENTER":96.3572,"MEAN_ANOMALY":263.7784,"EPHEMERIS_TYPE":0,"CLASSIFICATION_TYPE":"U","NORAD_CAT_ID":48770,"ELEMENT_SET_NO":999,"REV_AT_EPOCH":23437,"BSTAR":0.00033204,"MEAN_MOTION_DOT":1.38e-06,"MEAN_MOTION_DDOT":0.0}]